0 DELTA 1 DEB
1 01313U 65004D   13282.79334138 -.00000158  00000-0 -22399-3 0  4143
2 01313 096.4118 291.6117 1179017 064.5499 307.2781 12.00150474130870
0 DELTA 1 DEB
1 01313U 65004D   13283.79365043 -.00000216  00000-0 -31019-3 0  4158
2 01313 096.4115 292.1159 1179008 062.4329 309.1484 12.00150803130998
0 DELTA 1 DEB
1 01313U 65004D   13285.46082490 -.00000332  00000-0 -48299-3 0  4164
2 01313 096.4112 292.9565 1178962 058.9035 312.2361 12.00150966131198
0 DELTA 1 DEB
1 01313U 65004D   13286.46112514 -.00000388  00000-0 -56600-3 0  4173
2 01313 096.4116 293.4617 1178844 056.7821 314.0739 12.00150846131314
0 DELTA 1 DEB
1 01313U 65004D   13287.96157101 -.00000466  00000-0 -68074-3 0  4186
2 01313 096.4104 294.2169 1178917 053.6095 316.8011 12.00150312131492
0 DELTA 1 DEB
1 01313U 65004D   13288.96186474 -.00000500  00000-0 -73039-3 0  4199
2 01313 096.4103 294.7211 1178887 051.4912 318.6065 12.00150096131616
0 DELTA 1 DEB
1 01313U 65004D   13289.96215609 -.00000536  00000-0 -78379-3 0  4206
2 01313 096.4102 295.2252 1178862 049.3729 320.4005 12.00149350131730
0 DELTA 1 DEB
1 01313U 65004D   13290.96244531 -.00000553  00000-0 -80967-3 0  4210
2 01313 096.4101 295.7292 1178837 047.2548 322.1834 12.00148506131850
0 DELTA 1 DEB
1 01313U 65004D   13291.96273260 -.00000547  00000-0 -80024-3 0  4220
2 01313 096.4100 296.2331 1178810 045.1369 323.9555 12.00147438131973
0 DELTA 1 DEB
1 01313U 65004D   13292.96301829 -.00000530  00000-0 -77518-3 0  4231
2 01313 096.4099 296.7371 1178786 043.0183 325.7182 12.00146281132097
0 DELTA 1 DEB
1 01313U 65004D   13293.96330257 -.00000509  00000-0 -74236-3 0  4240
2 01313 096.4099 297.2413 1178777 040.8986 327.4724 12.00145117132218
0 DELTA 1 DEB
1 01313U 65004D   13294.96358549 -.00000461  00000-0 -67066-3 0  4256
2 01313 096.4097 297.7454 1178758 038.7796 329.2167 12.00143800132331
0 DELTA 1 DEB
1 01313U 65004D   13295.96386736 -.00000412  00000-0 -59851-3 0  4266
2 01313 096.4096 298.2496 1178744 036.6597 330.9532 12.00142582132457
